GSAT0207 (GALILEO 15)   
1 41859U 16069A   17344.67837050  .00000067  00000-0  00000+0 0  9996
2 41859  54.5763 187.4329 0002524 295.9691  64.0672  1.70473382  6609
